CCSDS_OMM_VERS = 2.0
CREATION_DATE  = 
ORIGINATOR     = 

OBJECT_NAME    = STARLINK-36532
OBJECT_ID      = 2026-020M
CENTER_NAME    = EARTH
REF_FRAME      = TEME
TIME_SYSTEM    = UTC
MEAN_ELEMENT_THEORY = SGP/SGP4

EPOCH          = 2026-02-15T12:59:48.879744
MEAN_MOTION    = 15.82244603
ECCENTRICITY   = .00022616
INCLINATION    = 42.9965
RA_OF_ASC_NODE = 276.5013
ARG_OF_PERICENTER = 237.5100
MEAN_ANOMALY   = 122.5553

EPHEMERIS_TYPE = 0
CLASSIFICATION_TYPE = U
NORAD_CAT_ID   = 67628
ELEMENT_SET_NO = 999
REV_AT_EPOCH   = 259
BSTAR          = .22306688E-2
MEAN_MOTION_DOT = .50283E-2
MEAN_MOTION_DDOT = 0

CCSDS_OMM_VERS = 2.0
CREATION_DATE  = 
ORIGINATOR     = 

OBJECT_NAME    = STARLINK-36367
OBJECT_ID      = 2026-020N
CENTER_NAME    = EARTH
REF_FRAME      = TEME
TIME_SYSTEM    = UTC
MEAN_ELEMENT_THEORY = SGP/SGP4

EPOCH          = 2026-02-14T23:22:32.405952
MEAN_MOTION    = 15.81353248
ECCENTRICITY   = .0004785
INCLINATION    = 42.9980
RA_OF_ASC_NODE = 279.9878
ARG_OF_PERICENTER = 325.2326
MEAN_ANOMALY   = 34.8233

EPHEMERIS_TYPE = 0
CLASSIFICATION_TYPE = U
NORAD_CAT_ID   = 67629
ELEMENT_SET_NO = 999
REV_AT_EPOCH   = 250
BSTAR          = .15198E-2
MEAN_MOTION_DOT = .321714E-2
MEAN_MOTION_DDOT = 0

CCSDS_OMM_VERS = 2.0
CREATION_DATE  = 
ORIGINATOR     = 

OBJECT_NAME    = STARLINK-36416
OBJECT_ID      = 2026-020P
CENTER_NAME    = EARTH
REF_FRAME      = TEME
TIME_SYSTEM    = UTC
MEAN_ELEMENT_THEORY = SGP/SGP4

EPOCH          = 2026-02-15T02:45:03.805632
MEAN_MOTION    = 15.76367319
ECCENTRICITY   = .00020947
INCLINATION    = 42.9981
RA_OF_ASC_NODE = 279.3311
ARG_OF_PERICENTER = 273.9952
MEAN_ANOMALY   = 86.0678

EPHEMERIS_TYPE = 0
CLASSIFICATION_TYPE = U
NORAD_CAT_ID   = 67630
ELEMENT_SET_NO = 999
REV_AT_EPOCH   = 252
BSTAR          = .89568004E-3
MEAN_MOTION_DOT = .147948E-2
MEAN_MOTION_DDOT = 0

CCSDS_OMM_VERS = 2.0
CREATION_DATE  = 
ORIGINATOR     = 

OBJECT_NAME    = STARLINK-36527
OBJECT_ID      = 2026-020Q
CENTER_NAME    = EARTH
REF_FRAME      = TEME
TIME_SYSTEM    = UTC
MEAN_ELEMENT_THEORY = SGP/SGP4

EPOCH          = 2026-02-15T12:58:14.012544
MEAN_MOTION    = 15.82285299
ECCENTRICITY   = .00033295
INCLINATION    = 42.9972
RA_OF_ASC_NODE = 276.4922
ARG_OF_PERICENTER = 229.7969
MEAN_ANOMALY   = 130.2612

EPHEMERIS_TYPE = 0
CLASSIFICATION_TYPE = U
NORAD_CAT_ID   = 67631
ELEMENT_SET_NO = 999
REV_AT_EPOCH   = 259
BSTAR          = .22343399E-2
MEAN_MOTION_DOT = .50474E-2
MEAN_MOTION_DDOT = 0

CCSDS_OMM_VERS = 2.0
CREATION_DATE  = 
ORIGINATOR     = 

OBJECT_NAME    = STARLINK-36633
OBJECT_ID      = 2026-020R
CENTER_NAME    = EARTH
REF_FRAME      = TEME
TIME_SYSTEM    = UTC
MEAN_ELEMENT_THEORY = SGP/SGP4

EPOCH          = 2026-02-15T12:57:10.695168
MEAN_MOTION    = 15.82244941
ECCENTRICITY   = .00024984
INCLINATION    = 42.9971
RA_OF_ASC_NODE = 276.4855
ARG_OF_PERICENTER = 242.2747
MEAN_ANOMALY   = 117.7871

EPHEMERIS_TYPE = 0
CLASSIFICATION_TYPE = U
NORAD_CAT_ID   = 67632
ELEMENT_SET_NO = 999
REV_AT_EPOCH   = 259
BSTAR          = .20876201E-2
MEAN_MOTION_DOT = .468676E-2
MEAN_MOTION_DDOT = 0

CCSDS_OMM_VERS = 2.0
CREATION_DATE  = 
ORIGINATOR     = 

OBJECT_NAME    = STARLINK-36637
OBJECT_ID      = 2026-020S
CENTER_NAME    = EARTH
REF_FRAME      = TEME
TIME_SYSTEM    = UTC
MEAN_ELEMENT_THEORY = SGP/SGP4

EPOCH          = 2026-02-15T13:20:32.078112
MEAN_MOTION    = 15.76601811
ECCENTRICITY   = .00023509
INCLINATION    = 42.9973
RA_OF_ASC_NODE = 276.6180
ARG_OF_PERICENTER = 263.7987
MEAN_ANOMALY   = 96.2615

EPHEMERIS_TYPE = 0
CLASSIFICATION_TYPE = U
NORAD_CAT_ID   = 67633
ELEMENT_SET_NO = 999
REV_AT_EPOCH   = 259
BSTAR          = .28551868E-2
MEAN_MOTION_DOT = .497978E-2
MEAN_MOTION_DDOT = 0

CCSDS_OMM_VERS = 2.0
CREATION_DATE  = 
ORIGINATOR     = 

OBJECT_NAME    = STARLINK-36617
OBJECT_ID      = 2026-020T
CENTER_NAME    = EARTH
REF_FRAME      = TEME
TIME_SYSTEM    = UTC
MEAN_ELEMENT_THEORY = SGP/SGP4

EPOCH          = 2026-02-15T00:48:02.943360
MEAN_MOTION    = 15.82123501
ECCENTRICITY   = .00025526
INCLINATION    = 42.9974
RA_OF_ASC_NODE = 279.5706
ARG_OF_PERICENTER = 262.1532
MEAN_ANOMALY   = 97.9050

EPHEMERIS_TYPE = 0
CLASSIFICATION_TYPE = U
NORAD_CAT_ID   = 67634
ELEMENT_SET_NO = 999
REV_AT_EPOCH   = 251
BSTAR          = .18710234E-2
MEAN_MOTION_DOT = .415002E-2
MEAN_MOTION_DDOT = 0

CCSDS_OMM_VERS = 2.0
CREATION_DATE  = 
ORIGINATOR     = 

OBJECT_NAME    = STARLINK-36627
OBJECT_ID      = 2026-020U
CENTER_NAME    = EARTH
REF_FRAME      = TEME
TIME_SYSTEM    = UTC
MEAN_ELEMENT_THEORY = SGP/SGP4

EPOCH          = 2026-02-15T14:00:01.999872
MEAN_MOTION    = 15.76382154
ECCENTRICITY   = .00019101
INCLINATION    = 42.9981
RA_OF_ASC_NODE = 276.3567
ARG_OF_PERICENTER = 245.5318
MEAN_ANOMALY   = 307.7267

EPHEMERIS_TYPE = 0
CLASSIFICATION_TYPE = U
NORAD_CAT_ID   = 67635
ELEMENT_SET_NO = 999
REV_AT_EPOCH   = 383
BSTAR          = -.62607279E-3
MEAN_MOTION_DOT = -.101305E-2
MEAN_MOTION_DDOT = 0

CCSDS_OMM_VERS = 2.0
CREATION_DATE  = 
ORIGINATOR     = 

OBJECT_NAME    = STARLINK-36624
OBJECT_ID      = 2026-020V
CENTER_NAME    = EARTH
REF_FRAME      = TEME
TIME_SYSTEM    = UTC
MEAN_ELEMENT_THEORY = SGP/SGP4

EPOCH          = 2026-02-15T12:52:38.353728
MEAN_MOTION    = 15.82333083
ECCENTRICITY   = .00028426
INCLINATION    = 42.9975
RA_OF_ASC_NODE = 276.4605
ARG_OF_PERICENTER = 256.1642
MEAN_ANOMALY   = 103.8914

EPHEMERIS_TYPE = 0
CLASSIFICATION_TYPE = U
NORAD_CAT_ID   = 67636
ELEMENT_SET_NO = 999
REV_AT_EPOCH   = 259
BSTAR          = .26363799E-2
MEAN_MOTION_DOT = .603958E-2
MEAN_MOTION_DDOT = 0

CCSDS_OMM_VERS = 2.0
CREATION_DATE  = 
ORIGINATOR     = 

OBJECT_NAME    = STARLINK-36610
OBJECT_ID      = 2026-020W
CENTER_NAME    = EARTH
REF_FRAME      = TEME
TIME_SYSTEM    = UTC
MEAN_ELEMENT_THEORY = SGP/SGP4

EPOCH          = 2026-02-15T13:14:13.693632
MEAN_MOTION    = 15.76574005
ECCENTRICITY   = .00022024
INCLINATION    = 42.9974
RA_OF_ASC_NODE = 276.5819
ARG_OF_PERICENTER = 249.4293
MEAN_ANOMALY   = 110.6340

EPHEMERIS_TYPE = 0
CLASSIFICATION_TYPE = U
NORAD_CAT_ID   = 67637
ELEMENT_SET_NO = 999
REV_AT_EPOCH   = 259
BSTAR          = .23615787E-2
MEAN_MOTION_DOT = .406832E-2
MEAN_MOTION_DDOT = 0

CCSDS_OMM_VERS = 2.0
CREATION_DATE  = 
ORIGINATOR     = 

OBJECT_NAME    = STARLINK-36599
OBJECT_ID      = 2026-020X
CENTER_NAME    = EARTH
REF_FRAME      = TEME
TIME_SYSTEM    = UTC
MEAN_ELEMENT_THEORY = SGP/SGP4

EPOCH          = 2026-02-15T12:49:20.726688
MEAN_MOTION    = 15.82285403
ECCENTRICITY   = .00028606
INCLINATION    = 42.9973
RA_OF_ASC_NODE = 276.4406
ARG_OF_PERICENTER = 249.3909
MEAN_ANOMALY   = 110.6656

EPHEMERIS_TYPE = 0
CLASSIFICATION_TYPE = U
NORAD_CAT_ID   = 67638
ELEMENT_SET_NO = 999
REV_AT_EPOCH   = 259
BSTAR          = .232488E-2
MEAN_MOTION_DOT = .52655E-2
MEAN_MOTION_DDOT = 0

CCSDS_OMM_VERS = 2.0
CREATION_DATE  = 
ORIGINATOR     = 

OBJECT_NAME    = STARLINK-36595
OBJECT_ID      = 2026-020Y
CENTER_NAME    = EARTH
REF_FRAME      = TEME
TIME_SYSTEM    = UTC
MEAN_ELEMENT_THEORY = SGP/SGP4

EPOCH          = 2026-02-15T12:48:12.691872
MEAN_MOTION    = 15.82266602
ECCENTRICITY   = .00022479
INCLINATION    = 42.9968
RA_OF_ASC_NODE = 276.4350
ARG_OF_PERICENTER = 262.3341
MEAN_ANOMALY   = 97.7276

EPHEMERIS_TYPE = 0
CLASSIFICATION_TYPE = U
NORAD_CAT_ID   = 67639
ELEMENT_SET_NO = 999
REV_AT_EPOCH   = 259
BSTAR          = .22457669E-2
MEAN_MOTION_DOT = .507006E-2
MEAN_MOTION_DDOT = 0

