STARLINK-36532          
1 67628U 26020M   26046.54153796  .00502830  00000+0  22307-2 0  9990
2 67628  42.9965 276.5013 0002261 237.5100 122.5553 15.82244603  2593
STARLINK-36367          
1 67629U 26020N   26045.97398618  .00321714  00000+0  15198-2 0  9991
2 67629  42.9980 279.9878 0004785 325.2326  34.8233 15.81353248  2501
STARLINK-36416          
1 67630U 26020P   26046.11462738  .00147948  00000+0  89568-3 0  9993
2 67630  42.9981 279.3311 0002094 273.9952  86.0678 15.76367319  2527
STARLINK-36527          
1 67631U 26020Q   26046.54043996  .00504740  00000+0  22343-2 0  9996
2 67631  42.9972 276.4922 0003329 229.7969 130.2612 15.82285299  2593
STARLINK-36633          
1 67632U 26020R   26046.53970712  .00468676  00000+0  20876-2 0  9997
2 67632  42.9971 276.4855 0002498 242.2747 117.7871 15.82244941  2594
STARLINK-36637          
1 67633U 26020S   26046.55592683  .00497978  00000+0  28552-2 0  9993
2 67633  42.9973 276.6180 0002350 263.7987  96.2615 15.76601811  2594
STARLINK-36617          
1 67634U 26020T   26046.03336740  .00415002  00000+0  18710-2 0  9990
2 67634  42.9974 279.5706 0002552 262.1532  97.9050 15.82123501  2510
STARLINK-36627          
1 67635U 26020U   26046.58335648 -.00101305  00000+0 -62607-3 0  9992
2 67635  42.9981 276.3567 0001910 245.5318 307.7267 15.76382154  3835
STARLINK-36624          
1 67636U 26020V   26046.53655502  .00603958  00000+0  26364-2 0  9990
2 67636  42.9975 276.4605 0002842 256.1642 103.8914 15.82333083  2596
STARLINK-36610          
1 67637U 26020W   26046.55154738  .00406832  00000+0  23616-2 0  9997
2 67637  42.9974 276.5819 0002202 249.4293 110.6340 15.76574005  2594
STARLINK-36599          
1 67638U 26020X   26046.53426767  .00526550  00000+0  23249-2 0  9992
2 67638  42.9973 276.4406 0002860 249.3909 110.6656 15.82285403  2596
STARLINK-36595          
1 67639U 26020Y   26046.53348023  .00507006  00000+0  22458-2 0  9997
2 67639  42.9968 276.4350 0002247 262.3341  97.7276 15.82266602  2596
